     2.100          NAVIGATION                              RINEX VERSION / TYPE
fic2rin                                 05/16/2015 00:14:21 PGM / RUN BY / DATE
                                                            END OF HEADER
23 15  5 15 16  0  0.0 -.108511187136D-03 -.250111042988D-11  .000000000000D+00
     .210000000000D+02  .123468750000D+03  .491949063082D-08 -.217813291166D+01
     .602751970291D-05  .101560218027D-01  .773370265961D-05  .515362338066D+04
     .489600000000D+06  .126659870148D-06  .413721293495D+00 -.208616256714D-06
     .948955501657D+00  .225437500000D+03 -.268617926715D+01 -.832606109958D-08
     .590381734626D-09  .100000000000D+01  .184400000000D+04  .000000000000D+00
     .240000000000D+01  .000000000000D+00 -.200234353542D-07  .210000000000D+02
     .482406000000D+06  .400000000000D+01
24 15  5 15 16  0  0.0 -.483049079776D-04 -.682121026330D-12  .000000000000D+00
     .130000000000D+02 -.380312500000D+02  .515021452711D-08 -.293243081037D+01
    -.203587114811D-05  .323286443017D-02  .192038714886D-05  .515367283058D+04
     .489600000000D+06 -.115483999252D-06  .144077994478D+01 -.894069671631D-07
     .953329670602D+00  .338593750000D+03  .362954908426D+00 -.860928718280D-08
    -.221794952936D-09  .100000000000D+01  .184400000000D+04  .000000000000D+00
     .240000000000D+01  .000000000000D+00  .232830643654D-08  .130000000000D+02
     .482406000000D+06  .400000000000D+01
25 15  5 15 16  0  0.0 -.294614583254D-04 -.386535248253D-11  .000000000000D+00
     .180000000000D+02 -.734062500000D+02  .398266589402D-08  .134973775434D+01
    -.376813113689D-05  .461219379213D-02  .115856528282D-04  .515368657112D+04
     .489600000000D+06 -.540167093277D-07  .250393548671D+01  .894069671631D-07
     .978302729664D+00  .166750000000D+03  .716767670193D+00 -.780746806953D-08
    -.278583032673D-09  .100000000000D+01  .184400000000D+04  .000000000000D+00
     .240000000000D+01  .000000000000D+00  .558793544769D-08  .180000000000D+02
     .482406000000D+06  .400000000000D+01
27 15  5 15 16  0  0.0  .721323303878D-04  .272848410532D-11  .000000000000D+00
     .920000000000D+02  .418437500000D+02  .437803950578D-08 -.919444843757D+00
     .214390456676D-05  .244276435114D-02  .918097794056D-05  .515368709373D+04
     .489600000000D+06  .128522515297D-06 -.273558175468D+01 -.745058059692D-07
     .967443755013D+00  .208125000000D+03  .202741806747D+00 -.798497546342D-08
     .487520307178D-09  .100000000000D+01  .184400000000D+04  .000000000000D+00
     .240000000000D+01  .000000000000D+00  .139698386192D-08  .920000000000D+02
     .482406000000D+06  .400000000000D+01
28 15  5 15 16  0  0.0  .439998228103D-03  .261479726760D-11  .000000000000D+00
     .810000000000D+02 -.807500000000D+02  .381265881254D-08 -.158907213226D+00
    -.410526990891D-05  .195138538256D-01  .113584101200D-04  .515369935989D+04
     .489600000000D+06 -.249594449997D-06  .257444806206D+01  .949949026108D-07
     .988999566179D+00  .180375000000D+03 -.166406760940D+01 -.801247660895D-08
    -.178221709364D-09  .100000000000D+01  .184400000000D+04  .000000000000D+00
     .240000000000D+01  .000000000000D+00 -.111758708954D-07  .810000000000D+02
     .482406000000D+06  .400000000000D+01
29 15  5 15 16  0  0.0  .610650051385D-03  .238742359215D-11  .000000000000D+00
     .390000000000D+02  .484062500000D+02  .432660879205D-08  .165867121914D+01
     .248476862907D-05  .129933084827D-02  .812672078609D-05  .515375971603D+04
     .489600000000D+06  .242143869400D-07 -.267855478536D+01  .117346644402D-06
     .973363305266D+00  .228750000000D+03 -.616717841094D+00 -.794104506212D-08
     .500377985609D-09  .100000000000D+01  .184400000000D+04  .000000000000D+00
     .240000000000D+01  .000000000000D+00 -.977888703346D-08  .390000000000D+02
     .482406000000D+06  .400000000000D+01
30 15  5 15 16  0  0.0 -.591701827943D-04  .522959453519D-11  .000000000000D+00
     .240000000000D+02 -.485625000000D+02  .518735893146D-08  .271117991831D+01
    -.246427953243D-05  .136612181086D-02  .190362334251D-05  .515373973465D+04
     .489600000000D+06  .745058059692D-08  .153099846700D+01  .447034835815D-07
     .955841277117D+00  .342781250000D+03  .286515253477D+01 -.865893210785D-08
    -.213937482783D-09  .100000000000D+01  .184400000000D+04  .000000000000D+00
     .240000000000D+01  .000000000000D+00  .325962901115D-08  .240000000000D+02
     .482406000000D+06  .400000000000D+01
31 15  5 15 16  0  0.0  .315838493407D-03 -.102318153949D-11  .000000000000D+00
     .240000000000D+02 -.503750000000D+02  .477234164433D-08  .239092155847D+01
    -.236369669437D-05  .810337893199D-02  .267475843430D-05  .515377661896D+04
     .489600000000D+06  .819563865662D-07  .148918258339D+01  .234693288803D-06
     .974991326817D+00  .335968750000D+03 -.515815372135D+00 -.841499337539D-08
    -.340014162955D-09  .100000000000D+01  .184400000000D+04  .000000000000D+00
     .240000000000D+01  .000000000000D+00 -.135041773319D-07  .240000000000D+02
     .482406000000D+06  .400000000000D+01
32 15  5 15 16  0  0.0 -.150572974235D-03  .966338120634D-11  .000000000000D+00
     .340000000000D+02  .131562500000D+02  .445232831449D-08  .303115461541D+01
     .754371285439D-06  .112482388504D-01  .141374766827D-04  .515377778816D+04
     .489600000000D+06 -.150874257088D-06 -.555726381332D+00 -.372529029846D-07
     .947145781292D+00  .953750000000D+02  .464703725233D-01 -.780532512312D-08
    -.212151694112D-09  .100000000000D+01  .184400000000D+04  .000000000000D+00
     .240000000000D+01  .000000000000D+00 -.372529029846D-08  .340000000000D+02
     .482406000000D+06  .400000000000D+01
17 15  5 15 15 59 44.0 -.171300489455D-03 -.193267624127D-11  .000000000000D+00
     .340000000000D+02  .429062500000D+02  .435018120251D-08 -.100101001535D+01
     .228546559811D-05  .100888996385D-01  .873580574989D-05  .515376179314D+04
     .489584000000D+06  .316649675369D-07 -.268790327954D+01  .206753611565D-06
     .972525669095D+00  .219843750000D+03 -.200851962359D+01 -.806997900416D-08
     .464662212189D-09  .100000000000D+01  .184400000000D+04  .000000000000D+00
     .240000000000D+01  .000000000000D+00 -.107102096081D-07  .340000000000D+02
     .482856000000D+06  .400000000000D+01
20 15  5 15 15 59 44.0  .320177990943D-03  .363797880709D-11  .000000000000D+00
     .110000000000D+02 -.144062500000D+02  .501092301077D-08 -.105079838848D+01
    -.512227416039D-06  .563957542181D-02  .113286077976D-04  .515581615257D+04
     .489584000000D+06 -.558793544769D-08 -.709894246151D+00  .135973095894D-06
     .926319233326D+00  .142062500000D+03  .121892709266D+01 -.829891711178D-08
    -.301798285396D-09  .100000000000D+01  .184400000000D+04  .000000000000D+00
     .240000000000D+01  .000000000000D+00 -.838190317154D-08  .110000000000D+02
     .484206000000D+06  .400000000000D+01
20 15  5 15 17 59 44.0  .320204533637D-03  .363797880709D-11  .000000000000D+00
     .160000000000D+02 -.292500000000D+02  .502949521295D-08 -.211139309085D-02
    -.140070915222D-05  .563774828333D-02  .115744769573D-04  .515581213188D+04
     .496784000000D+06 -.143423676491D-06 -.709953873229D+00  .115483999252D-06
     .926317005301D+00  .139125000000D+03  .121911714473D+01 -.828605943335D-08
    -.349657421778D-09  .100000000000D+01  .184400000000D+04  .000000000000D+00
     .240000000000D+01  .000000000000D+00 -.838190317154D-08  .160000000000D+02
     .489606000000D+06  .400000000000D+01
 1 15  5 15 18  0  0.0 -.554509460926D-05  .454747350886D-12  .000000000000D+00
     .830000000000D+02 -.322187500000D+02  .482341520032D-08 -.203105580784D+01
    -.162795186043D-05  .420256785583D-02  .505335628986D-05  .515365560150D+04
     .496800000000D+06 -.745058059692D-07 -.167866801606D+01  .931322574615D-08
     .961739458526D+00  .283625000000D+03  .375453191041D+00 -.822641409174D-08
    -.224295057075D-09  .100000000000D+01  .184400000000D+04  .000000000000D+00
     .240000000000D+01  .000000000000D+00  .558793544769D-08  .830000000000D+02
     .489606000000D+06  .400000000000D+01
 2 15  5 15 18  0  0.0  .566024798900D-03  .238742359215D-11  .000000000000D+00
     .860000000000D+02 -.262812500000D+02  .536272337895D-08 -.159905795987D+01
    -.132061541080D-05  .145789259113D-01  .371970236301D-05  .515354792976D+04
     .496800000000D+06  .363215804100D-06 -.171598955054D+01 -.135973095894D-06
     .940378345664D+00  .296218750000D+03 -.226674546581D+01 -.846606693138D-08
    -.139291516336D-09  .100000000000D+01  .184400000000D+04  .000000000000D+00
     .240000000000D+01  .000000000000D+00 -.204890966415D-07  .860000000000D+02
     .489606000000D+06  .400000000000D+01
 3 15  5 15 18  0  0.0  .327717047185D-03  .100044417195D-10  .000000000000D+00
     .170000000000D+02  .159375000000D+01  .419946063868D-08 -.912764797003D-01
     .152736902237D-06  .916348304600D-03  .130888074636D-04  .515369276428D+04
     .496800000000D+06  .745058059692D-07 -.637779692118D+00  .372529029846D-08
     .959391947531D+00  .125812500000D+03 -.265602936818D+01 -.785889878325D-08
    -.296440919383D-09  .100000000000D+01  .184400000000D+04  .000000000000D+00
     .240000000000D+01  .000000000000D+00  .186264514923D-08  .170000000000D+02
     .489606000000D+06  .400000000000D+01
 4 15  5 15 18  0  0.0 -.148625113070D-04 -.147792889038D-11  .000000000000D+00
     .600000000000D+02 -.342500000000D+02  .530414951055D-08 -.228741988932D+01
    -.173039734364D-05  .112460685195D-01  .453554093838D-05  .515368533897D+04
     .496800000000D+06  .782310962677D-07 -.170070147437D+01 -.670552253723D-07
     .939432940707D+00  .279250000000D+03  .105795871124D+01 -.837677749783D-08
    -.196436753808D-09  .100000000000D+01  .184400000000D+04  .000000000000D+00
     .240000000000D+01  .000000000000D+00 -.651925802231D-08  .600000000000D+02
     .489606000000D+06  .400000000000D+01
